{
  "type": "FeatureCollection",
  "features": [
    {
      "type": "Feature",
      "properties": {
        "norad_id": 24946,
        "name": "IRIDIUM 33",
        "group": "iridium-33-debris",
        "lat": 71.38903398992205,
        "lon": -126.42419667983931,
        "alt_km": 765.3892561387829,
        "timestamp": "2025-12-21T20:41:08.340831+00:00",
        "meta_object_name": "IRIDIUM 33",
        "meta_object_id": "1997-051C",
        "meta_epoch": "2025-12-21T13:29:19.791168",
        "meta_mean_motion": 14.35043038,
        "meta_eccentricity": 0.00080908,
        "meta_inclination": 86.3862,
        "meta_ra_of_asc_node": 64.5184,
        "meta_arg_of_pericenter": 171.0601,
        "meta_mean_anomaly": 189.0741,
        "meta_ephemeris_type": 0,
        "meta_classification_type": "U",
        "meta_norad_cat_id": 24946,
        "meta_element_set_no": 999,
        "meta_rev_at_epoch": 47961,
        "meta_bstar": 9.2433948e-05,
        "meta_mean_motion_dot": 2.83e-06,
        "meta_mean_motion_ddot": 0,
        "tle_line1": "1 24946U 97051C   25355.56203462  .00000283  00000+0  92434-4 0  9993",
        "tle_line2": "2 24946  86.3862  64.5184 0008090 171.0601 189.0741 14.35043038479619"
      },
      "geometry": {
        "type": "Point",
        "coordinates": [
          -126.42419667983931,
          71.38903398992205
        ]
      }
    },
    {
      "type": "Feature",
      "properties": {
        "norad_id": 33773,
        "name": "IRIDIUM 33 DEB",
        "group": "iridium-33-debris",
        "lat": -25.081977723572223,
        "lon": 55.03534124621762,
        "alt_km": 761.0422047365673,
        "timestamp": "2025-12-21T20:41:08.340873+00:00",
        "meta_object_name": "IRIDIUM 33 DEB",
        "meta_object_id": "1997-051L",
        "meta_epoch": "2025-12-21T14:08:46.577472",
        "meta_mean_motion": 14.43274227,
        "meta_eccentricity": 0.0013137,
        "meta_inclination": 86.4001,
        "meta_ra_of_asc_node": 56.8393,
        "meta_arg_of_pericenter": 120.8294,
        "meta_mean_anomaly": 239.4201,
        "meta_ephemeris_type": 0,
        "meta_classification_type": "U",
        "meta_norad_cat_id": 33773,
        "meta_element_set_no": 999,
        "meta_rev_at_epoch": 88475,
        "meta_bstar": 0.00023085818,
        "meta_mean_motion_dot": 7.98e-06,
        "meta_mean_motion_ddot": 0,
        "tle_line1": "1 33773U 97051L   25355.58942798  .00000798  00000+0  23086-3 0  9992",
        "tle_line2": "2 33773  86.4001  56.8393 0013137 120.8294 239.4201 14.43274227884758"
      },
      "geometry": {
        "type": "Point",
        "coordinates": [
          55.03534124621762,
          -25.081977723572223
        ]
      }
    },
    {
      "type": "Feature",
      "properties": {
        "norad_id": 33775,
        "name": "IRIDIUM 33 DEB",
        "group": "iridium-33-debris",
        "lat": -0.3231187533550007,
        "lon": 45.63824373694398,
        "alt_km": 763.234236381516,
        "timestamp": "2025-12-21T20:41:08.340888+00:00",
        "meta_object_name": "IRIDIUM 33 DEB",
        "meta_object_id": "1997-051N",
        "meta_epoch": "2025-12-21T14:37:50.869920",
        "meta_mean_motion": 14.41485837,
        "meta_eccentricity": 0.00150882,
        "meta_inclination": 86.3627,
        "meta_ra_of_asc_node": 45.7665,
        "meta_arg_of_pericenter": 128.1119,
        "meta_mean_anomaly": 3.4564,
        "meta_ephemeris_type": 0,
        "meta_classification_type": "U",
        "meta_norad_cat_id": 33775,
        "meta_element_set_no": 999,
        "meta_rev_at_epoch": 88268,
        "meta_bstar": 0.00024417836,
        "meta_mean_motion_dot": 8.13e-06,
        "meta_mean_motion_ddot": 0,
        "tle_line1": "1 33775U 97051N   25355.60961655  .00000813  00000+0  24418-3 0  9998",
        "tle_line2": "2 33775  86.3627  45.7665 0015088 128.1119   3.4564 14.41485837882686"
      },
      "geometry": {
        "type": "Point",
        "coordinates": [
          45.63824373694398,
          -0.3231187533550007
        ]
      }
    },
    {
      "type": "Feature",
      "properties": {
        "norad_id": 33776,
        "name": "IRIDIUM 33 DEB",
        "group": "iridium-33-debris",
        "lat": 56.349335564854144,
        "lon": -108.47672881012062,
        "alt_km": 750.3187658814841,
        "timestamp": "2025-12-21T20:41:08.340899+00:00",
        "meta_object_name": "IRIDIUM 33 DEB",
        "meta_object_id": "1997-051P",
        "meta_epoch": "2025-12-21T05:21:01.511424",
        "meta_mean_motion": 14.38249202,
        "meta_eccentricity": 0.0015311,
        "meta_inclination": 86.4033,
        "meta_ra_of_asc_node": 77.2134,
        "meta_arg_of_pericenter": 163.1939,
        "meta_mean_anomaly": 254.0485,
        "meta_ephemeris_type": 0,
        "meta_classification_type": "U",
        "meta_norad_cat_id": 33776,
        "meta_element_set_no": 999,
        "meta_rev_at_epoch": 88204,
        "meta_bstar": 0.00022734,
        "meta_mean_motion_dot": 7.11e-06,
        "meta_mean_motion_ddot": 0,
        "tle_line1": "1 33776U 97051P   25355.22293416  .00000711  00000+0  22734-3 0  9996",
        "tle_line2": "2 33776  86.4033  77.2134 0015311 163.1939 254.0485 14.38249202882044"
      },
      "geometry": {
        "type": "Point",
        "coordinates": [
          -108.47672881012062,
          56.349335564854144
        ]
      }
    },
    {
      "type": "Feature",
      "properties": {
        "norad_id": 33777,
        "name": "IRIDIUM 33 DEB",
        "group": "iridium-33-debris",
        "lat": 57.93827579639702,
        "lon": -154.57024814554032,
        "alt_km": 701.553943794067,
        "timestamp": "2025-12-21T20:41:08.340911+00:00",
        "meta_object_name": "IRIDIUM 33 DEB",
        "meta_object_id": "1997-051Q",
        "meta_epoch": "2025-12-21T13:31:41.929536",
        "meta_mean_motion": 14.55669483,
        "meta_eccentricity": 0.00058959,
        "meta_inclination": 86.3773,
        "meta_ra_of_asc_node": 31.3646,
        "meta_arg_of_pericenter": 210.8728,
        "meta_mean_anomaly": 149.2134,
        "meta_ephemeris_type": 0,
        "meta_classification_type": "U",
        "meta_norad_cat_id": 33777,
        "meta_element_set_no": 999,
        "meta_rev_at_epoch": 88662,
        "meta_bstar": 0.00059970111,
        "meta_mean_motion_dot": 2.64e-05,
        "meta_mean_motion_ddot": 0,
        "tle_line1": "1 33777U 97051Q   25355.56367974  .00002640  00000+0  59970-3 0  9990",
        "tle_line2": "2 33777  86.3773  31.3646 0005895 210.8728 149.2134 14.55669483886626"
      },
      "geometry": {
        "type": "Point",
        "coordinates": [
          -154.57024814554032,
          57.93827579639702
        ]
      }
    },
    {
      "type": "Feature",
      "properties": {
        "norad_id": 33850,
        "name": "IRIDIUM 33 DEB",
        "group": "iridium-33-debris",
        "lat": 2.848495441267634,
        "lon": 26.43928671105465,
        "alt_km": 760.0849107948488,
        "timestamp": "2025-12-21T20:41:08.340922+00:00",
        "meta_object_name": "IRIDIUM 33 DEB",
        "meta_object_id": "1997-051T",
        "meta_epoch": "2025-12-21T12:54:25.325568",
        "meta_mean_motion": 14.4216572,
        "meta_eccentricity": 0.00130293,
        "meta_inclination": 86.3408,
        "meta_ra_of_asc_node": 26.3962,
        "meta_arg_of_pericenter": 134.7554,
        "meta_mean_anomaly": 346.6938,
        "meta_ephemeris_type": 0,
        "meta_classification_type": "U",
        "meta_norad_cat_id": 33850,
        "meta_element_set_no": 999,
        "meta_rev_at_epoch": 88279,
        "meta_bstar": 0.00030357281,
        "meta_mean_motion_dot": 1.019e-05,
        "meta_mean_motion_ddot": 0,
        "tle_line1": "1 33850U 97051T   25355.53779312  .00001019  00000+0  30357-3 0  9999",
        "tle_line2": "2 33850  86.3408  26.3962 0013029 134.7554 346.6938 14.42165720882797"
      },
      "geometry": {
        "type": "Point",
        "coordinates": [
          26.43928671105465,
          2.848495441267634
        ]
      }
    },
    {
      "type": "Feature",
      "properties": {
        "norad_id": 33853,
        "name": "IRIDIUM 33 DEB",
        "group": "iridium-33-debris",
        "lat": 52.61429463289888,
        "lon": -8.935231324013845,
        "alt_km": 1027.9819931445745,
        "timestamp": "2025-12-21T20:41:08.340933+00:00",
        "meta_object_name": "IRIDIUM 33 DEB",
        "meta_object_id": "1997-051W",
        "meta_epoch": "2025-12-20T22:14:35.888928",
        "meta_mean_motion": 13.9910315,
        "meta_eccentricity": 0.0207332,
        "meta_inclination": 85.9999,
        "meta_ra_of_asc_node": 346.2208,
        "meta_arg_of_pericenter": 210.5493,
        "meta_mean_anomaly": 176.3282,
        "meta_ephemeris_type": 0,
        "meta_classification_type": "U",
        "meta_norad_cat_id": 33853,
        "meta_element_set_no": 999,
        "meta_rev_at_epoch": 85460,
        "meta_bstar": 0.0010168,
        "meta_mean_motion_dot": 1.786e-05,
        "meta_mean_motion_ddot": 0,
        "tle_line1": "1 33853U 97051W   25354.92680427  .00001786  00000+0  10168-2 0  9990",
        "tle_line2": "2 33853  85.9999 346.2208 0207332 210.5493 176.3282 13.99103150854603"
      },
      "geometry": {
        "type": "Point",
        "coordinates": [
          -8.935231324013845,
          52.61429463289888
        ]
      }
    }
  ]
}